OBJECT_NAME,OBJECT_ID,EPOCH,MEAN_MOTION,ECCENTRICITY,INCLINATION,RA_OF_ASC_NODE,ARG_OF_PERICENTER,MEAN_ANOMALY,EPHEMERIS_TYPE,CLASSIFICATION_TYPE,NORAD_CAT_ID,ELEMENT_SET_NO,REV_AT_EPOCH,BSTAR,MEAN_MOTION_DOT,MEAN_MOTION_DDOT
INTELSAT 902 (IS-902),2001-039A,2026-06-07T04:37:58.935072,1.00270646,.0004296,6.0933,71.9037,1.6561,201.4206,0,U,26900,999,9059,0,-.27E-5,0
INTELSAT 904 (IS-904),2002-007A,2026-06-06T15:02:01.861152,1.00270083,.0007136,6.8931,69.3106,0.5431,19.1983,0,U,27380,999,5166,0,-.213E-5,0
DIRECTV 5 (TEMPO 1),2002-023A,2026-06-07T09:28:54.487776,1.00271704,.0003415,4.8520,75.4317,9.9234,202.5699,0,U,27426,999,8802,0,-.43E-6,0
INTELSAT 905 (IS-905),2002-027A,2026-06-07T09:24:22.827168,1.00273018,.00041,6.7282,69.9175,15.0213,174.7463,0,U,27438,999,5126,0,.107E-5,0
GALAXY 3C (G-3C),2002-030A,2026-06-07T09:33:16.570080,1.00271628,.0001864,3.7048,78.1070,31.0102,195.1557,0,U,27445,999,4639,0,-.138E-5,0
INTELSAT 906 (IS-906),2002-041A,2026-06-06T23:57:21.517344,1.00271051,.0004738,5.7780,73.0447,356.8843,248.9538,0,U,27513,999,8692,0,.27E-6,0
GALAXY 13 (HORIZONS-1),2003-044A,2026-06-07T11:00:10.568160,1.00272852,.0002084,1.3951,83.9758,347.2822,199.6311,0,U,27954,999,4647,0,.147E-5,0
INTELSAT 10-02,2004-022A,2026-06-07T09:59:44.035296,1.00270393,.000033,0.0100,336.1818,175.5338,253.0318,0,U,28358,999,8045,0,.3E-7,0
DIRECTV 8,2005-019A,2026-06-07T11:09:02.219328,1.00269870,.000294,0.0170,354.4094,87.5814,222.0836,0,U,28659,999,7697,0,0,0
GALAXY 28 (G-28),2005-022A,2026-06-07T11:35:14.707104,1.00273229,.0002831,3.2746,79.0483,352.6529,330.8870,0,U,28702,999,5187,0,-.185E-5,0
GALAXY 16 (G-16),2006-023A,2026-06-07T11:14:46.669344,1.00271973,.0002718,0.0174,153.4470,282.2973,249.8263,0,U,29236,999,7287,0,-.112E-5,0
DIRECTV 9S,2006-043A,2026-06-07T11:14:09.227040,1.00271665,.0005093,2.3948,81.0199,6.0135,236.1938,0,U,29494,999,5128,0,-.99E-6,0
GALAXY 17 (G-17),2007-016B,2026-06-07T11:18:46.285056,1.00272069,.0004897,2.9467,80.0233,14.5849,245.9707,0,U,31307,999,6970,0,-.192E-5,0
INTELSAT 11 (IS-11),2007-044B,2026-06-07T10:42:29.356704,0.99053795,.0001819,3.5393,78.7873,80.5514,65.7509,0,U,32253,999,6835,0,-.207E-5,0
HORIZONS-2,2007-063B,2026-06-07T11:21:53.487072,1.00272389,.0004061,2.5762,80.7454,354.5262,277.3106,0,U,32388,999,6771,0,-.239E-5,0
DIRECTV 11,2008-013A,2026-06-07T11:14:39.181056,1.00273169,.0000512,0.0322,184.5266,228.2859,272.5478,0,U,32729,999,4549,0,-.111E-5,0
GALAXY 18 (G-18),2008-024A,2026-06-07T09:25:17.336064,1.00272865,.0003199,0.0238,69.8654,16.5151,187.7363,0,U,32951,999,4575,0,.39E-6,0
INTELSAT 25 (IS-25),2008-034A,2026-06-07T07:22:15.225024,0.99020748,.0001902,2.6820,80.4475,30.5176,60.9856,0,U,33153,999,6559,0,-.222E-5,0
GALAXY 19 (G-19),2008-045A,2026-06-07T11:15:16.619904,1.00272222,.0002812,0.0210,76.9222,357.3754,253.4065,0,U,33376,999,6480,0,-.125E-5,0
FM-5,2009-034A,2026-06-07T11:18:23.821056,1.00274109,.000054,0.0185,288.6811,24.8739,25.7714,0,U,35493,999,4654,0,-.186E-5,0
INTELSAT 14 (IS-14),2009-064A,2026-06-07T09:47:30.207264,1.00271424,.0002841,0.0158,330.0938,121.7347,265.8736,0,U,36097,999,6050,0,-.259E-5,0
INTELSAT 15 (IS-15),2009-067A,2026-06-07T10:24:39.519072,1.00271810,.0002344,0.0151,333.0960,105.8656,58.1958,0,U,36106,999,4113,0,-.171E-5,0
DIRECTV 12,2009-075A,2026-06-07T11:16:38.235936,1.00270552,.0000331,0.0305,152.6274,268.8928,260.7950,0,U,36131,999,4645,0,-.89E-6,0
INTELSAT 16 (IS-16),2010-006A,2026-06-07T11:21:16.047360,1.00270931,.0002192,0.0228,49.4911,40.9880,259.5312,0,U,36397,999,5955,0,-.23E-5,0
XM-5,2010-053A,2026-06-07T09:27:32.120064,1.00269379,.0002975,0.0653,273.2387,279.8470,89.4090,0,U,37185,999,5738,0,-.8E-7,0
INTELSAT 17 (IS-17),2010-065B,2026-06-07T08:36:21.763008,1.00272296,.0002448,0.0035,326.3974,116.2071,8.2423,0,U,37238,999,5315,0,.13E-6,0
INTELSAT 28 (IS-28),2011-016A,2026-06-07T10:23:11.785056,1.00269060,.0003939,1.7801,82.7441,353.9005,303.2941,0,U,37392,999,5318,0,-.21E-5,0
INTELSAT 18 (IS-18),2011-056A,2026-06-07T10:51:41.380992,1.00272084,.0002159,0.0194,316.2891,134.2013,148.2917,0,U,37834,999,5371,0,.67E-6,0
INTELSAT 22 (IS-22),2012-011A,2026-06-07T10:20:54.879072,1.00273310,.0001606,0.0199,60.2324,6.0315,56.8970,0,U,38098,999,709,0,-.44E-6,0
INTELSAT 19 (IS-19),2012-030A,2026-06-07T09:41:33.408960,1.00271472,.0003099,0.0099,30.1614,53.9129,123.1264,0,U,38356,999,5035,0,-.42E-6,0
INTELSAT 20 (IS-20),2012-043A,2026-06-07T10:19:54.975360,1.00271751,.0001701,0.0084,90.7466,84.5032,304.0599,0,U,38740,999,5065,0,-.1E-6,0
