INTELSAT 902 (IS-902)   
1 26900U 01039A   26158.19304323 -.00000270  00000+0  00000+0 0  9995
2 26900   6.0933  71.9037 0004296   1.6561 201.4206  1.00270646 90591
INTELSAT 904 (IS-904)   
1 27380U 02007A   26157.62641043 -.00000213  00000+0  00000+0 0  9991
2 27380   6.8931  69.3106 0007136   0.5431  19.1983  1.00270083 51664
DIRECTV 5 (TEMPO 1)     
1 27426U 02023A   26158.39507509 -.00000043  00000+0  00000+0 0  9994
2 27426   4.8520  75.4317 0003415   9.9234 202.5699  1.00271704 88022
INTELSAT 905 (IS-905)   
1 27438U 02027A   26158.39193087  .00000107  00000+0  00000+0 0  9993
2 27438   6.7282  69.9175 0004100  15.0213 174.7463  1.00273018 51263
GALAXY 3C (G-3C)        
1 27445U 02030A   26158.39810845 -.00000138  00000+0  00000+0 0  9998
2 27445   3.7048  78.1070 0001864  31.0102 195.1557  1.00271628 46397
INTELSAT 906 (IS-906)   
1 27513U 02041A   26157.99816571  .00000027  00000+0  00000+0 0  9999
2 27513   5.7780  73.0447 0004738 356.8843 248.9538  1.00271051 86922
GALAXY 13 (HORIZONS-1)  
1 27954U 03044A   26158.45845565  .00000147  00000+0  00000+0 0  9992
2 27954   1.3951  83.9758 0002084 347.2822 199.6311  1.00272852 46478
INTELSAT 10-02          
1 28358U 04022A   26158.41648189  .00000003  00000+0  00000+0 0  9998
2 28358   0.0100 336.1818 0000330 175.5338 253.0318  1.00270393 80451
DIRECTV 8               
1 28659U 05019A   26158.46460902  .00000000  00000+0  00000+0 0  9996
2 28659   0.0170 354.4094 0002940  87.5814 222.0836  1.00269870 76972
GALAXY 28 (G-28)        
1 28702U 05022A   26158.48280911 -.00000185  00000+0  00000+0 0  9996
2 28702   3.2746  79.0483 0002831 352.6529 330.8870  1.00273229 51876
GALAXY 16 (G-16)        
1 29236U 06023A   26158.46859571 -.00000112  00000+0  00000+0 0  9993
2 29236   0.0174 153.4470 0002718 282.2973 249.8263  1.00271973 72879
DIRECTV 9S              
1 29494U 06043A   26158.46816235 -.00000099  00000+0  00000+0 0  9995
2 29494   2.3948  81.0199 0005093   6.0135 236.1938  1.00271665 51282
GALAXY 17 (G-17)        
1 31307U 07016B   26158.47136904 -.00000192  00000+0  00000+0 0  9995
2 31307   2.9467  80.0233 0004897  14.5849 245.9707  1.00272069 69702
INTELSAT 11 (IS-11)     
1 32253U 07044B   26158.44617311 -.00000207  00000+0  00000+0 0  9997
2 32253   3.5393  78.7873 0001819  80.5514  65.7509  0.99053795 68353
HORIZONS-2              
1 32388U 07063B   26158.47353573 -.00000239  00000+0  00000+0 0  9992
2 32388   2.5762  80.7454 0004061 354.5262 277.3106  1.00272389 67713
DIRECTV 11              
1 32729U 08013A   26158.46850904 -.00000111  00000+0  00000+0 0  9995
2 32729   0.0322 184.5266 0000512 228.2859 272.5478  1.00273169 45494
GALAXY 18 (G-18)        
1 32951U 08024A   26158.39256176  .00000039  00000+0  00000+0 0  9995
2 32951   0.0238  69.8654 0003199  16.5151 187.7363  1.00272865 45751
INTELSAT 25 (IS-25)     
1 33153U 08034A   26158.30712066 -.00000222  00000+0  00000+0 0  9992
2 33153   2.6820  80.4475 0001902  30.5176  60.9856  0.99020748 65595
GALAXY 19 (G-19)        
1 33376U 08045A   26158.46894236 -.00000125  00000+0  00000+0 0  9990
2 33376   0.0210  76.9222 0002812 357.3754 253.4065  1.00272222 64803
FM-5                    
1 35493U 09034A   26158.47110904 -.00000186  00000+0  00000+0 0  9992
2 35493   0.0185 288.6811 0000540  24.8739  25.7714  1.00274109 46545
INTELSAT 14 (IS-14)     
1 36097U 09064A   26158.40798851 -.00000259  00000+0  00000+0 0  9993
2 36097   0.0158 330.0938 0002841 121.7347 265.8736  1.00271424 60506
INTELSAT 15 (IS-15)     
1 36106U 09067A   26158.43379073 -.00000171  00000+0  00000+0 0  9994
2 36106   0.0151 333.0960 0002344 105.8656  58.1958  1.00271810 41138
DIRECTV 12              
1 36131U 09075A   26158.46988699 -.00000089  00000+0  00000+0 0  9992
2 36131   0.0305 152.6274 0000331 268.8928 260.7950  1.00270552 46451
INTELSAT 16 (IS-16)     
1 36397U 10006A   26158.47310240 -.00000230  00000+0  00000+0 0  9992
2 36397   0.0228  49.4911 0002192  40.9880 259.5312  1.00270931 59557
XM-5                    
1 37185U 10053A   26158.39412176 -.00000008  00000+0  00000+0 0  9995
2 37185   0.0653 273.2387 0002975 279.8470  89.4090  1.00269379 57382
INTELSAT 17 (IS-17)     
1 37238U 10065B   26158.35858522  .00000013  00000+0  00000+0 0  9997
2 37238   0.0035 326.3974 0002448 116.2071   8.2423  1.00272296 53155
INTELSAT 28 (IS-28)     
1 37392U 11016A   26158.43277529 -.00000210  00000+0  00000+0 0  9996
2 37392   1.7801  82.7441 0003939 353.9005 303.2941  1.00269060 53181
INTELSAT 18 (IS-18)     
1 37834U 11056A   26158.45256228  .00000067  00000+0  00000+0 0  9995
2 37834   0.0194 316.2891 0002159 134.2013 148.2917  1.00272084 53714
INTELSAT 22 (IS-22)     
1 38098U 12011A   26158.43119073 -.00000044  00000+0  00000+0 0  9990
2 38098   0.0199  60.2324 0001606   6.0315  56.8970  1.00273310  7092
INTELSAT 19 (IS-19)     
1 38356U 12030A   26158.40385890 -.00000042  00000+0  00000+0 0  9995
2 38356   0.0099  30.1614 0003099  53.9129 123.1264  1.00271472 50356
INTELSAT 20 (IS-20)     
1 38740U 12043A   26158.43049740 -.00000010  00000+0  00000+0 0  9995
2 38740   0.0084  90.7466 0001701  84.5032 304.0599  1.00271751 50659
